[{"OBJECT_NAME":"STARLINK-2036","OBJECT_ID":"2021-012AJ","EPOCH":"2026-03-10T00:00:02.999808","MEAN_MOTION":15.43145644,"ECCENTRICITY":0.00019859,"INCLINATION":53.161,"RA_OF_ASC_NODE":63.0833,"ARG_OF_PERICENTER":97.7885,"MEAN_ANOMALY":132.9108,"EPHEMERIS_TYPE":0,"CLASSIFICATION_TYPE":"U","NORAD_CAT_ID":47652,"ELEMENT_SET_NO":999,"REV_AT_EPOCH":585,"BSTAR":0.0033754047,"MEAN_MOTION_DOT":0.00154499,"MEAN_MOTION_DDOT":0},{"OBJECT_NAME":"HAMMER","OBJECT_ID":"2024-043BC","EPOCH":"2026-03-09T22:08:09.303360","MEAN_MOTION":15.45834152,"ECCENTRICITY":0.0007773,"INCLINATION":97.5325,"RA_OF_ASC_NODE":213.4373,"ARG_OF_PERICENTER":171.9296,"MEAN_ANOMALY":188.2079,"EPHEMERIS_TYPE":0,"CLASSIFICATION_TYPE":"U","NORAD_CAT_ID":59148,"ELEMENT_SET_NO":999,"REV_AT_EPOCH":11245,"BSTAR":0.00056289484,"MEAN_MOTION_DOT":0.00027298,"MEAN_MOTION_DDOT":0}]
